CAS-2T & KS-1Q          
1 41847U 16066G   21145.44646688  .00000083  00000-0  23833-4 0  9996
2 41847  98.6027 204.4765 0364137 289.1417  67.0689 14.38188505238576
NAYIF-1 (EO-88)         
1 42017U 17008BX  21145.44607446  .00002561  00000-0  96174-4 0  9993
2 42017  97.3170 213.4575 0006110 173.6335 186.4984 15.28080759237744
ZHUHAI-1 02 (CAS-4B)    
1 42759U 17034B   21145.53578510  .00000431  00000-0  39246-4 0  9995
2 42759  43.0171 307.0741 0008922  11.5861  38.3693 15.10205716217684
ZHUHAI-1 01 (CAS-4A)    
1 42761U 17034D   21145.53120088  .00000612  00000-0  50038-4 0  9994
2 42761  43.0184 306.1709 0009372  13.0251  53.9367 15.10290359217683
MAX VALIER SAT          
1 42778U 17036P   21145.38261758  .00001465  00000-0  64093-4 0  9990
2 42778  97.2567 194.7483 0010096 255.1072 104.9047 15.23550605217771
RADFXSAT (FOX-1B)       
1 43017U 17073E   21145.27214085  .00001236  00000-0  99940-4 0  9992
2 43017  97.7087  50.1750 0255629  16.3687 344.5590 14.79521311189690
FOX-1D (AO-92)          
1 43137U 18004AC  21145.17388765  .00001567  00000-0  65294-4 0  9998
2 43137  97.4073 219.4427 0007243 298.5274  61.5234 15.25192758187116
DIWATA-2B               
1 43678U 18084H   21145.58045099  .00000472  00000-0  52557-4 0  9993
2 43678  97.9179 270.7425 0011280 121.6490 238.5847 14.91750164140026
ES'HAIL 2               
1 43700U 18090A   21145.59560569  .00000147  00000-0  00000+0 0  9991
2 43700   0.0177 331.1161 0001504 109.9394  42.5337  1.00270891  9384
FOX-1CLIFF (AO-95)      
1 43770U 18099N   21145.43052656  .00000229  00000-0  25876-4 0  9997
2 43770  97.6659 216.1250 0015729 130.7968 229.4620 14.95308445135018
ITASAT 1                
1 43786U 18099AE  21145.15357437  .00000709  00000-0  68819-4 0  9995
2 43786  97.6679 216.5159 0016564 125.4358 234.8413 14.95604866135006
JY1SAT (JO-97)          
1 43803U 18099AX  21145.45570992  .00000365  00000-0  37694-4 0  9996
2 43803  97.6635 216.5663 0016366 125.1635 235.1122 14.95843882135052
UWE-4                   
1 43880U 18111E   21145.45471939 -.00000088  00000-0 -26665-5 0  9998
2 43880  97.6887  53.5788 0012007 174.3679 185.7680 14.96851293131641
PSAT2 (NO-104)          
1 44354U 19036R   21145.68431917  .00009147  00000-0  11876-3 0  9998
2 44354  28.5279 278.7796 0327753  29.3569 332.5020 15.12980230105510
BRICSAT2 (NO-103)       
1 44355U 19036S   21145.62567191  .00024158  00000-0  26709-3 0  9997
2 44355  28.5223 237.7425 0268843  96.1597 266.9695 15.28294455105928
JAISAT-1                
1 44419U 19038F   21145.43602461  .00001472  00000-0  85037-4 0  9993
2 44419  97.5869 110.2256 0022151  35.5487 324.7215 15.13710173104310
DUCHIFAT-3              
1 44854U 19089C   21145.55361292  .00000602  00000-0  54529-4 0  9995
2 44854  36.9661 236.0582 0009557 312.8722  47.1229 14.99481504 79663
RS-44 & BREEZE-KM R/B   
1 44909U 19096E   21145.48547887  .00000006  00000-0 -26241-4 0  9991
2 44909  82.5183 128.0735 0217970 146.5465 214.9627 12.79709973 65880
ORBITAL FACTORY 2 (OF-2)
1 45113U 19071C   21145.43416561  .00002671  00000-0  86813-4 0  9991
2 45113  51.6407 149.1110 0011436 208.7219 151.3135 15.35628831 73630
HUSKYSAT-1 (HO-107)     
1 45119U 19071J   21145.44603491  .00001636  00000-0  57411-4 0  9990
2 45119  51.6403 148.4360 0010866 205.0496 154.9961 15.35665148 73632
BY70-2                  
1 45857U 20042B   21145.47603432  .00001575  00000-0  23076-3 0  9998
2 45857  97.9825 221.4624 0009068 290.2310  69.7930 14.76971673 48155
SALSAT                  
1 46495U 20068K   21145.56609989  .00001021  00000-0  79287-4 0  9990
2 46495  97.6924  83.1965 0017895 146.6619 213.5736 15.03450880 35898
BY70-3                  
1 46839U 20079N   21145.54862463  .00003521  00000-0  11094-3 0  9998
2 46839  97.2403 219.8600 0005190 294.9587 171.7662 15.33549469 30699
RADFXSAT-2 (AO-109)     
1 47311U 21002C   21145.62233750  .00000897  00000-0  51066-4 0  9998
2 47311  60.6876  16.6619 0033681  36.3953 323.9414 15.21598017 19409
UVSQ-SAT                
1 47438U 21006AB  21145.36814438  .00001070  00000-0  64016-4 0  9994
2 47438  97.4886 207.0038 0013034 170.7535 189.3938 15.13092148 18564
DIY-1 (ARDUIQUBE)       
1 47963U 21022AH  21145.45721283  .00002402  00000-0  16319-3 0  9992
2 47963  97.5612  48.1977 0020877  28.2862 331.9495 15.07150025  8434
